AMC-3                   
1 24936U 97050A   26093.87673584 -.00000260  00000+0  00000+0 0  9990
2 24936   7.9650  64.9211 0003653 297.8149  73.0793  1.00265290 51698
NSS-11                  
1 26554U 00059A   26094.13979966  .00000025  00000+0  00000+0 0  9992
2 26554   1.9356  82.2517 0003138 294.6691  41.8642  1.00273314 40544
AMC-6                   
1 26580U 00067A   26094.24314302  .00000088  00000+0  00000+0 0  9998
2 26580   0.0616  57.1778 0003722 331.2414 116.6176  1.00273642 93154
AMC-11                  
1 28252U 04017A   26094.22551333 -.00000050  00000+0  00000+0 0  9990
2 28252   0.1197  80.1669 0003297 303.0493 139.4139  1.00273013 80120
AMC-15                  
1 28446U 04041A   26094.22672668 -.00000089  00000+0  00000+0 0  9999
2 28446   0.0505  49.4881 0002235 324.6186 155.0137  1.00272345 78564
NSS-10                  
1 28526U 05003A   26094.22197449 -.00000250  00000+0  00000+0 0  9996
2 28526   6.2653  71.3359 0003246 300.3369 223.3295  1.00272043 52411
ASTRA 1KR               
1 29055U 06012A   26094.19419966  .00000118  00000+0  00000+0 0  9994
2 29055   0.2831  82.1372 0003597 288.3113 270.9694  1.00270424 44959
ASTRA 1L                
1 31306U 07016A   26094.21642233 -.00000184  00000+0  00000+0 0  9993
2 31306   1.1308  82.0893 0004366 310.2435 213.5892  1.00272871 44247
ASTRA 4A                
1 32299U 07057A   26094.17715315  .00000032  00000+0  00000+0 0  9998
2 32299   0.0506  56.2673 0002652 326.3912 238.4181  1.00270767 50909
ASTRA 1M                
1 33436U 08057A   26094.19419966  .00000120  00000+0  00000+0 0  9996
2 33436   0.1080  75.0102 0002877 355.4284 211.3457  1.00271980 44997
NSS-9                   
1 33749U 09008A   26094.19141847  .00000072  00000+0  00000+0 0  9996
2 33749   1.0706  83.3077 0002234 282.9627  78.2066  1.00272171 62779
SES-7 (PROTOSTAR 2)     
1 34941U 09027A   26093.98379905 -.00000346  00000+0  00000+0 0  9991
2 34941   0.0890  78.2732 0002032 241.5550 334.8897  1.00272821 61886
NSS-12                  
1 36032U 09058A   26094.18755319  .00000071  00000+0  00000+0 0  9992
2 36032   0.0730  61.1201 0005061 297.3560 318.5480  1.00271262 60175
SES-1                   
1 36516U 10016A   26094.22750668 -.00000115  00000+0  00000+0 0  9992
2 36516   0.0298 283.2188 0002778  95.1114 155.1032  1.00269677 58298
ASTRA 3B                
1 36581U 10021A   26094.19419966  .00000137  00000+0  00000+0 0  9992
2 36581   1.2780  84.4359 0003585 305.4312 256.0405  1.00272298 58124
SES-3                   
1 37748U 11035A   26094.26953550 -.00000102  00000+0  00000+0 0  9997
2 37748   1.1356  83.8548 0003459 295.3828 167.3741  1.00271481 53855
ASTRA 1N                
1 37775U 11041A   26094.09003069  .00000119  00000+0  00000+0 0  9993
2 37775   0.0874  41.2005 0005044 359.6758 203.1299  1.00269556 43780
